$$SOE
2460721.500000000, A.D. 2025-Feb-15 00:00:00.0000, -2.394011232526307E+08, -2.305463420694284E+08, 1.512041956917748E+06,
2460728.500000000, A.D. 2025-Feb-22 00:00:00.0000, -2.297075236303730E+08, -2.382038059570995E+08, 2.866908497172564E+06,
2460735.500000000, A.D. 2025-Mar-01 00:00:00.0000, -2.197062914582167E+08, -2.455422676735664E+08, 4.217931436387330E+06,
2460742.500000000, A.D. 2025-Mar-08 00:00:00.0000, -2.094070112097274E+08, -2.525476425686479E+08, 5.563227846179739E+06,
2460749.500000000, A.D. 2025-Mar-15 00:00:00.0000, -1.988200159507765E+08, -2.592060396985018E+08, 6.900875667615771E+06,
2460756.500000000, A.D. 2025-Mar-22 00:00:00.0000, -1.879563986883975E+08, -2.655038065764559E+08, 8.228917044807792E+06,
2460763.500000000, A.D. 2025-Mar-29 00:00:00.0000, -1.768280195037064E+08, -2.714275783642706E+08, 9.545361740805715E+06,
2460770.500000000, A.D. 2025-Apr-05 00:00:00.0000, -1.654475078398315E+08, -2.769643282089554E+08, 1.084819087159801E+07,
2460777.500000000, A.D. 2025-Apr-12 00:00:00.0000, -1.538282615694344E+08, -2.821014184230256E+08, 1.213536114960790E+07,
2460784.500000000, A.D. 2025-Apr-19 00:00:00.0000, -1.419844427350604E+08, -2.868266531485310E+08, 1.340480958434734E+07,
2460791.500000000, A.D. 2025-Apr-26 00:00:00.0000, -1.299309694095975E+08, -2.911283324224942E+08, 1.465445859670176E+07,
2460798.500000000, A.D. 2025-May-03 00:00:00.0000, -1.176835033004072E+08, -2.949953072942330E+08, 1.588222153073740E+07,
2460805.500000000, A.D. 2025-May-10 00:00:00.0000, -1.052584328292238E+08, -2.984170356102877E+08, 1.708600854804024E+07,
2460812.500000000, A.D. 2025-May-17 00:00:00.0000, -9.267285143834138E+07, -3.013836380902390E+08, 1.826373287802020E+07,
2460819.500000000, A.D. 2025-May-24 00:00:00.0000, -7.994453076997221E+07, -3.038859542983185E+08, 1.941331737714094E+07,
2460826.500000000, A.D. 2025-May-31 00:00:00.0000, -6.709188817017439E+07, -3.059155977264535E+08, 2.053270135235447E+07,
2460833.500000000, A.D. 2025-Jun-07 00:00:00.0000, -5.413394884844051E+07, -3.074650082830912E+08, 2.161984774773532E+07,
2460840.500000000, A.D. 2025-Jun-14 00:00:00.0000, -4.109030504963312E+07, -3.085275023197756E+08, 2.267275081428680E+07,
2460847.500000000, A.D. 2025-Jun-21 00:00:00.0000, -2.798107107130541E+07, -3.090973229051182E+08, 2.368944383383007E+07,
2460854.500000000, A.D. 2025-Jun-28 00:00:00.0000, -1.482683110820527E+07, -3.091696880108871E+08, 2.466800669760267E+07,
2460861.500000000, A.D. 2025-Jul-05 00:00:00.0000, -1.648581617147191E+06, -3.087408338860041E+08, 2.560657359336129E+07,
2460868.500000000, A.D. 2025-Jul-12 00:00:00.0000, 1.153233035917505E+07, -3.078080538686827E+08, 2.650334077917090E+07,
2460875.500000000, A.D. 2025-Jul-19 00:00:00.0000, 2.469427277620570E+07, -3.063697326796761E+08, 2.735657431173547E+07,
2460882.500000000, A.D. 2025-Jul-26 00:00:00.0000, 3.781539789037356E+07, -3.044253757511060E+08, 2.816461763534473E+07,
2460889.500000000, A.D. 2025-Aug-02 00:00:00.0000, 5.087371487598737E+07, -3.019756331039014E+08, 2.892589895460337E+07,
2460896.500000000, A.D. 2025-Aug-09 00:00:00.0000, 6.384716524664401E+07, -2.990223173712866E+08, 2.963893831355123E+07,
2460903.500000000, A.D. 2025-Aug-16 00:00:00.0000, 7.671370056897947E+07, -2.955684156765476E+08, 3.030235429616894E+07,
2460910.500000000, A.D. 2025-Aug-23 00:00:00.0000, 8.945136212115240E+07, -2.916180950651236E+08, 3.091487025294434E+07,
2460917.500000000, A.D. 2025-Aug-30 00:00:00.0000, 1.020383621425744E+08, -2.871767005700564E+08, 3.147532001502952E+07,
2460924.500000000, A.D. 2025-Sep-06 00:00:00.0000, 1.144531645439180E+08, -2.822507447849424E+08, 3.198265324496590E+07,
2460931.500000000, A.D. 2025-Sep-13 00:00:00.0000, 1.266745626760376E+08, -2.768478913863530E+08, 3.243594031629144E+07,
2460938.500000000, A.D. 2025-Sep-20 00:00:00.0000, 1.386817566976252E+08, -2.709769342998738E+08, 3.283437623644978E+07,
2460945.500000000, A.D. 2025-Sep-27 00:00:00.0000, 1.504544308760384E+08, -2.646477695444946E+08, 3.317728372884409E+07,
2460952.500000000, A.D. 2025-Oct-04 00:00:00.0000, 1.619728280996057E+08, -2.578713594541587E+08, 3.346411567130186E+07,
2460959.500000000, A.D. 2025-Oct-11 00:00:00.0000, 1.732178205550708E+08, -2.506596905421750E+08, 3.369445682563335E+07,
2460966.500000000, A.D. 2025-Oct-18 00:00:00.0000, 1.841709762267059E+08, -2.430257256854396E+08, 3.386802479720446E+07,
2460973.500000000, A.D. 2025-Oct-25 00:00:00.0000, 1.948146207858154E+08, -2.349833510933025E+08, 3.398467021027706E+07,
2460980.500000000, A.D. 2025-Nov-01 00:00:00.0000, 2.051318944039979E+08, -2.265473185854200E+08, 3.404437610432871E+07,
2460987.500000000, A.D. 2025-Nov-08 00:00:00.0000, 2.151068030905126E+08, -2.177331838014140E+08, 3.404725656201592E+07,
2460994.500000000, A.D. 2025-Nov-15 00:00:00.0000, 2.247242643480548E+08, -2.085572410308872E+08, 3.399355457548647E+07,
2461001.500000000, A.D. 2025-Nov-22 00:00:00.0000, 2.339701472849364E+08, -1.990364551044835E+08, 3.388363916757520E+07,
2461008.500000000, A.D. 2025-Nov-29 00:00:00.0000, 2.428313068536181E+08, -1.891883898956547E+08, 3.371800192023480E+07,
2461015.500000000, A.D. 2025-Dec-06 00:00:00.0000, 2.512956098420758E+08, -1.790311342607308E+08, 3.349725315916813E+07,
2461022.500000000, A.D. 2025-Dec-13 00:00:00.0000, 2.593519530342165E+08, -1.685832294656281E+08, 3.322211753344346E+07,
2461029.500000000, A.D. 2025-Dec-20 00:00:00.0000, 2.669902770977864E+08, -1.578635977315226E+08, 3.289342881168438E+07,
2461036.500000000, A.D. 2025-Dec-27 00:00:00.0000, 2.742015752711067E+08, -1.468914699386044E+08, 3.251212426859366E+07,
2461043.500000000, A.D. 2026-Jan-03 00:00:00.0000, 2.809778956033326E+08, -1.356863136989299E+08, 3.207923881137473E+07,
2461050.500000000, A.D. 2026-Jan-10 00:00:00.0000, 2.873123371320099E+08, -1.242677630272407E+08, 3.159589884709889E+07,
2461057.500000000, A.D. 2026-Jan-17 00:00:00.0000, 2.931990405575339E+08, -1.126555501997630E+08, 3.106331592855060E+07,
2461064.500000000, A.D. 2026-Jan-24 00:00:00.0000, 2.986331738643894E+08, -1.008694402217318E+08, 3.048278023859392E+07,
2461071.500000000, A.D. 2026-Jan-31 00:00:00.0000, 3.036109133199605E+08, -8.892916829782595E+07, 2.985565397357989E+07,
2461078.500000000, A.D. 2026-Feb-07 00:00:00.0000, 3.081294203431902E+08, -7.685438069272563E+07, 2.918336467487646E+07,
2461085.500000000, A.D. 2026-Feb-14 00:00:00.0000, 3.121868149357312E+08, -6.466457926733692E+07, 2.846739853694760E+07,
2461092.500000000, A.D. 2026-Feb-21 00:00:00.0000, 3.157821465040767E+08, -5.237906931680796E+07, 2.770929374980826E+07,
2461099.500000000, A.D. 2026-Feb-28 00:00:00.0000, 3.189153614379315E+08, -4.001690969487772E+07, 2.691063411360589E+07,
2461106.500000000, A.D. 2026-Mar-07 00:00:00.0000, 3.215872658423859E+08, -2.759686726219491E+07, 2.607304299708909E+07,
2461113.500000000, A.D. 2026-Mar-14 00:00:00.0000, 3.237994866432205E+08, -1.513737803123306E+07, 2.519817723222875E+07,
2461120.500000000, A.D. 2026-Mar-21 00:00:00.0000, 3.255544332766451E+08, -2.656512104066409E+06, 2.428772105203260E+07,
2461127.500000000, A.D. 2026-Mar-28 00:00:00.0000, 3.268552583638793E+08, 9.828058667150497E+06, 2.334338036906381E+07,
2461134.500000000, A.D. 2026-Apr-04 00:00:00.0000, 3.277058171472064E+08, 2.229908940672879E+07, 2.236687739334439E+07,
2461141.500000000, A.D. 2026-Apr-11 00:00:00.0000, 3.281106263091957E+08, 3.473978707845668E+07, 2.135994555092181E+07,
2461148.500000000, A.D. 2026-Apr-18 00:00:00.0000, 3.280748226513879E+08, 4.713383161761614E+07, 2.032432469895533E+07,
2461155.500000000, A.D. 2026-Apr-25 00:00:00.0000, 3.276041219657730E+08, 5.946539350976709E+07, 1.926175664157334E+07,
2461162.500000000, A.D. 2026-May-02 00:00:00.0000, 3.267047783881766E+08, 7.171914796787533E+07, 1.817398094525935E+07,
2461169.500000000, A.D. 2026-May-09 00:00:00.0000, 3.253835445879537E+08, 8.388028583545071E+07, 1.706273103785115E+07,
2461176.500000000, A.D. 2026-May-16 00:00:00.0000, 3.236476333715539E+08, 9.593452155455515E+07, 1.592973056529657E+07,
2461183.500000000, A.D. 2026-May-23 00:00:00.0000, 3.215046809162242E+08, 1.078680994263965E+08, 1.477669007903863E+07,
2461190.500000000, A.D. 2026-May-30 00:00:00.0000, 3.189627096932713E+08, 1.196677986994514E+08, 1.360530426421516E+07,
2461197.500000000, A.D. 2026-Jun-06 00:00:00.0000, 3.160300908892757E+08, 1.313209344258297E+08, 1.241724946303698E+07,
2461204.500000000, A.D. 2026-Jun-13 00:00:00.0000, 3.127155100871853E+08, 1.428153544869814E+08, 1.121418116213468E+07,
2461211.500000000, A.D. 2026-Jun-20 00:00:00.0000, 3.090279357707921E+08, 1.541394359150071E+08, 9.997731716176234E+06,
2461218.500000000, A.D. 2026-Jun-27 00:00:00.0000, 3.049765890021544E+08, 1.652820803669918E+08, 8.769508423094206E+06,
2461225.500000000, A.D. 2026-Jul-04 00:00:00.0000, 3.005709143042298E+08, 1.762327081664442E+08, 7.531091874378383E+06,
2461232.500000000, A.D. 2026-Jul-11 00:00:00.0000, 2.958205520187924E+08, 1.869812509593360E+08, 6.284034532544419E+06,
2461239.500000000, A.D. 2026-Jul-18 00:00:00.0000, 2.907353122338706E+08, 1.975181431799855E+08, 5.029859515243217E+06,
2461246.500000000, A.D. 2026-Jul-25 00:00:00.0000, 2.853251502940053E+08, 2.078343124887686E+08, 3.770059569786146E+06,
2461253.500000000, A.D. 2026-Aug-01 00:00:00.0000, 2.796001439195459E+08, 2.179211692825249E+08, 2.506096215648711E+06,
2461260.500000000, A.D. 2026-Aug-08 00:00:00.0000, 2.735704721195775E+08, 2.277705953806294E+08, 1.239399018445224E+06,
2461267.500000000, A.D. 2026-Aug-15 00:00:00.0000, 2.672463962769062E+08, 2.373749324641887E+08, -2.863501971952617E+04,
2461274.500000000, A.D. 2026-Aug-22 00:00:00.0000, 2.606382425973774E+08, 2.467269716016349E+08, -1.296641797621772E+06,
2461281.500000000, A.D. 2026-Aug-29 00:00:00.0000, 2.537563835768790E+08, 2.558199425938754E+08, -2.563290094314024E+06,
2461288.500000000, A.D. 2026-Sep-05 00:00:00.0000, 2.466112205685800E+08, 2.646475003753650E+08, -3.827281631949201E+06,
$$EOE